ONEWEB-0340             
1 49206U 21083W   24194.54502770  .00000064  00000+0  12922-3 0  9993
2 49206  87.9150 115.7295 0001963  82.6456 277.4899 13.18687296137102
ONEWEB-0341             
1 49207U 21083X   24194.47704806  .00000037  00000+0  61533-4 0  9993
2 49207  87.9150 115.7567 0001239  74.4025 285.7243 13.18688468137110
ONEWEB-0342             
1 49208U 21083Y   24194.58544599 -.00000058  00000+0 -17389-3 0  9991
2 49208  87.9184  54.6518 0001801  76.6968 283.4366 13.20770608143771
ONEWEB-0343             
1 49209U 21083Z   24194.54817801  .00000011  00000+0 -47701-5 0  9998
2 49209  87.9143 115.7482 0001457  69.5887 290.5401 13.18684582138465
ONEWEB-0344             
1 49210U 21083AA  24194.45012317 -.00000158  00000+0 -46647-3 0  9998
2 49210  87.8931 100.5266 0001513  87.4906 272.6396 13.13469955138382
ONEWEB-0345             
1 49211U 21083AB  24194.46758822 -.00000272  00000+0 -77897-3 0  9996
2 49211  87.8927 100.4974 0001494  88.1858 271.9442 13.13470204138399
ONEWEB-0346             
1 49212U 21083AC  24194.33004561  .00000084  00000+0  18152-3 0  9995
2 49212  87.9151 115.7948 0002120  90.2529 269.8846 13.18687583137080
ONEWEB-0348             
1 49213U 21083AD  24194.57597599  .00000044  00000+0  77387-4 0  9992
2 49213  87.9193  54.6281 0001692 106.6107 253.5213 13.20770823145108
